<?xml version="1.0" encoding="UTF-8"?>
<gpx version="1.1" creator="S&S Travel Guide" xmlns="http://www.topografix.com/GPX/1/1">
  <metadata><name>Zion to Idaho Falls</name><desc>Planning waypoints and overview connection; not road-snapped navigation.</desc></metadata>
  <wpt lat="37.1889" lon="-112.9986"><name>Springdale, Utah</name><type>destination</type></wpt>
  <wpt lat="37.635" lon="-112.8453"><name>Cedar Breaks National Monument</name><type>viewpoint</type></wpt>
  <wpt lat="43.4927" lon="-112.0408"><name>Idaho Falls, Idaho</name><type>destination</type></wpt>
  <trk><name>Zion to Idaho Falls</name><trkseg>
      <trkpt lat="37.1889" lon="-112.9986"><name>Springdale, Utah</name></trkpt>
      <trkpt lat="37.635" lon="-112.8453"><name>Cedar Breaks National Monument</name></trkpt>
      <trkpt lat="43.4927" lon="-112.0408"><name>Idaho Falls, Idaho</name></trkpt>
  </trkseg></trk>
</gpx>
