<?xml version="1.0" encoding="UTF-8"?>
<gpx version="1.1" creator="S&S Travel Guide" xmlns="http://www.topografix.com/GPX/1/1">
  <metadata><name>Deadwood to Marion</name><desc>Planning waypoints and overview connection; not road-snapped navigation.</desc></metadata>
  <wpt lat="44.3767" lon="-103.7296"><name>Deadwood, South Dakota</name><type>destination</type></wpt>
  <wpt lat="42.0342" lon="-91.5977"><name>Marion, Iowa</name><type>destination</type></wpt>
  <trk><name>Deadwood to Marion</name><trkseg>
      <trkpt lat="44.3767" lon="-103.7296"><name>Deadwood, South Dakota</name></trkpt>
      <trkpt lat="42.0342" lon="-91.5977"><name>Marion, Iowa</name></trkpt>
  </trkseg></trk>
</gpx>
