<?xml version="1.0" encoding="UTF-8"?>
<kml xmlns="http://www.opengis.net/kml/2.2"><Document><name>Jackson Activities</name><Placemark><name>Rusty Parrot Lodge (Jackson)</name><description>lodging; confidence: exact</description><Point><coordinates>-110.7665,43.4814,0</coordinates></Point></Placemark>
<Placemark><name>Rafting Meeting Point (225 W Broadway)</name><description>destination; confidence: exact</description><Point><coordinates>-110.7646,43.4797,0</coordinates></Point></Placemark>
<Placemark><name>Jackson, Wyoming</name><description>destination; confidence: high</description><Point><coordinates>-110.7624,43.4799,0</coordinates></Point></Placemark>
<Placemark><name>Rusty Parrot Lodge (Jackson)</name><description>lodging; confidence: exact</description><Point><coordinates>-110.7665,43.4814,0</coordinates></Point></Placemark><Placemark><name>Jackson Activities overview</name><description>Waypoint connection only; not road-snapped.</description><LineString><tessellate>1</tessellate><coordinates>-110.7665,43.4814,0 -110.7646,43.4797,0 -110.7624,43.4799,0 -110.7665,43.4814,0</coordinates></LineString></Placemark></Document></kml>
