<?xml version="1.0" encoding="UTF-8"?>
<kml xmlns="http://www.opengis.net/kml/2.2"><Document><name>Moab to Bryce via Scenic Utah</name><Placemark><name>Moab, Utah</name><description>destination; confidence: high</description><Point><coordinates>-109.5498,38.5733,0</coordinates></Point></Placemark>
<Placemark><name>Goblin Valley State Park</name><description>viewpoint; confidence: high</description><Point><coordinates>-110.7072,38.5738,0</coordinates></Point></Placemark>
<Placemark><name>Capitol Reef Visitor Center</name><description>visitor_center; confidence: high</description><Point><coordinates>-111.2615,38.2916,0</coordinates></Point></Placemark>
<Placemark><name>Boulder, Utah</name><description>destination; confidence: high</description><Point><coordinates>-111.423,37.9221,0</coordinates></Point></Placemark>
<Placemark><name>Head of the Rocks Overlook</name><description>viewpoint; confidence: high</description><Point><coordinates>-111.4493,37.7451,0</coordinates></Point></Placemark>
<Placemark><name>Sunset Point, Bryce Canyon</name><description>viewpoint; confidence: high</description><Point><coordinates>-112.1666,37.6283,0</coordinates></Point></Placemark>
<Placemark><name>Bryce Canyon City</name><description>destination; confidence: high</description><Point><coordinates>-112.1587,37.6733,0</coordinates></Point></Placemark><Placemark><name>Moab to Bryce via Scenic Utah overview</name><description>Waypoint connection only; not road-snapped.</description><LineString><tessellate>1</tessellate><coordinates>-109.5498,38.5733,0 -110.7072,38.5738,0 -111.2615,38.2916,0 -111.423,37.9221,0 -111.4493,37.7451,0 -112.1666,37.6283,0 -112.1587,37.6733,0</coordinates></LineString></Placemark></Document></kml>