<?xml version="1.0" encoding="UTF-8"?>
<kml xmlns="http://www.opengis.net/kml/2.2"><Document><name>Yellowstone and Beartooth</name><Placemark><name>Rusty Parrot Lodge (Jackson)</name><description>lodging; confidence: exact</description><Point><coordinates>-110.7665,43.4814,0</coordinates></Point></Placemark>
<Placemark><name>Old Faithful</name><description>viewpoint; confidence: high</description><Point><coordinates>-110.8281,44.4605,0</coordinates></Point></Placemark>
<Placemark><name>Grand Prismatic Spring</name><description>viewpoint; confidence: high</description><Point><coordinates>-110.8382,44.525,0</coordinates></Point></Placemark>
<Placemark><name>Artist Point</name><description>viewpoint; confidence: high</description><Point><coordinates>-110.4796,44.7214,0</coordinates></Point></Placemark>
<Placemark><name>Lamar Valley</name><description>wildlife_zone; confidence: approximate</description><Point><coordinates>-110.2195,44.8955,0</coordinates></Point></Placemark>
<Placemark><name>Mammoth Hot Springs</name><description>visitor_center; confidence: high</description><Point><coordinates>-110.7018,44.9766,0</coordinates></Point></Placemark>
<Placemark><name>Beartooth Pass West Summit</name><description>viewpoint; confidence: high</description><Point><coordinates>-109.4687,44.9697,0</coordinates></Point></Placemark>
<Placemark><name>Rock Creek Vista Point</name><description>viewpoint; confidence: high</description><Point><coordinates>-109.4077,45.0503,0</coordinates></Point></Placemark>
<Placemark><name>Red Lodge, Montana</name><description>destination; confidence: high</description><Point><coordinates>-109.2468,45.1858,0</coordinates></Point></Placemark>
<Placemark><name>Big Horn Resort (Billings)</name><description>lodging; confidence: exact</description><Point><coordinates>-108.6041,45.7344,0</coordinates></Point></Placemark><Placemark><name>Yellowstone and Beartooth overview</name><description>Waypoint connection only; not road-snapped.</description><LineString><tessellate>1</tessellate><coordinates>-110.7665,43.4814,0 -110.8281,44.4605,0 -110.8382,44.525,0 -110.4796,44.7214,0 -110.2195,44.8955,0 -110.7018,44.9766,0 -109.4687,44.9697,0 -109.4077,45.0503,0 -109.2468,45.1858,0 -108.6041,45.7344,0</coordinates></LineString></Placemark></Document></kml>
