<?xml version="1.0" encoding="UTF-8"?>
<kml xmlns="http://www.opengis.net/kml/2.2"><Document><name>Zion to Idaho Falls</name><Placemark><name>Red Cliffs Lodge Zion (Springdale)</name><description>lodging; confidence: exact</description><Point><coordinates>-112.9969,37.1895,0</coordinates></Point></Placemark>
<Placemark><name>Cedar Breaks National Monument</name><description>viewpoint; confidence: high</description><Point><coordinates>-112.8453,37.635,0</coordinates></Point></Placemark>
<Placemark><name>Holiday Inn Express (Idaho Falls)</name><description>lodging; confidence: exact</description><Point><coordinates>-111.9907,43.4779,0</coordinates></Point></Placemark><Placemark><name>Zion to Idaho Falls overview</name><description>Waypoint connection only; not road-snapped.</description><LineString><tessellate>1</tessellate><coordinates>-112.9969,37.1895,0 -112.8453,37.635,0 -111.9907,43.4779,0</coordinates></LineString></Placemark></Document></kml>
