<?xml version="1.0" encoding="UTF-8"?>
<kml xmlns="http://www.opengis.net/kml/2.2"><Document><name>Grand Teton to Jackson</name><Placemark><name>Holiday Inn Express (Idaho Falls)</name><description>lodging; confidence: exact</description><Point><coordinates>-111.9907,43.4779,0</coordinates></Point></Placemark>
<Placemark><name>Oxbow Bend</name><description>viewpoint; confidence: high</description><Point><coordinates>-110.547,43.865,0</coordinates></Point></Placemark>
<Placemark><name>Signal Mountain Summit</name><description>viewpoint; confidence: high</description><Point><coordinates>-110.6127,43.8435,0</coordinates></Point></Placemark>
<Placemark><name>Jenny Lake Visitor Area</name><description>visitor_center; confidence: high</description><Point><coordinates>-110.722,43.752,0</coordinates></Point></Placemark>
<Placemark><name>Mormon Row Historic District</name><description>viewpoint; confidence: high</description><Point><coordinates>-110.6647,43.6608,0</coordinates></Point></Placemark>
<Placemark><name>Rusty Parrot Lodge (Jackson)</name><description>lodging; confidence: exact</description><Point><coordinates>-110.7665,43.4814,0</coordinates></Point></Placemark><Placemark><name>Grand Teton to Jackson overview</name><description>Waypoint connection only; not road-snapped.</description><LineString><tessellate>1</tessellate><coordinates>-111.9907,43.4779,0 -110.547,43.865,0 -110.6127,43.8435,0 -110.722,43.752,0 -110.6647,43.6608,0 -110.7665,43.4814,0</coordinates></LineString></Placemark></Document></kml>
