<?xml version="1.0" encoding="UTF-8"?>
<kml xmlns="http://www.opengis.net/kml/2.2"><Document><name>Deadwood to Marion via Mount Rushmore</name><Placemark><name>Tru by Hilton (Deadwood)</name><description>lodging; confidence: exact</description><Point><coordinates>-103.7236,44.381,0</coordinates></Point></Placemark>
<Placemark><name>Mount Rushmore National Memorial</name><description>viewpoint; confidence: high</description><Point><coordinates>-103.4591,43.8791,0</coordinates></Point></Placemark>
<Placemark><name>Crazy Horse Memorial</name><description>viewpoint; confidence: high</description><Point><coordinates>-103.6232,43.8366,0</coordinates></Point></Placemark>
<Placemark><name>Marion, Iowa</name><description>destination; confidence: high</description><Point><coordinates>-91.5977,42.0342,0</coordinates></Point></Placemark><Placemark><name>Deadwood to Marion via Mount Rushmore overview</name><description>Waypoint connection only; not road-snapped.</description><LineString><tessellate>1</tessellate><coordinates>-103.7236,44.381,0 -103.4591,43.8791,0 -103.6232,43.8366,0 -91.5977,42.0342,0</coordinates></LineString></Placemark></Document></kml>
