<?xml version="1.0" encoding="UTF-8"?>
<kml xmlns="http://www.opengis.net/kml/2.2"><Document><name>Billings to Deadwood</name><Placemark><name>Big Horn Resort (Billings)</name><description>lodging; confidence: exact</description><Point><coordinates>-108.6041,45.7344,0</coordinates></Point></Placemark>
<Placemark><name>Devils Tower Visitor Center</name><description>visitor_center; confidence: high</description><Point><coordinates>-104.7146,44.5902,0</coordinates></Point></Placemark>
<Placemark><name>Tru by Hilton (Deadwood)</name><description>lodging; confidence: exact</description><Point><coordinates>-103.7236,44.381,0</coordinates></Point></Placemark><Placemark><name>Billings to Deadwood overview</name><description>Waypoint connection only; not road-snapped.</description><LineString><tessellate>1</tessellate><coordinates>-108.6041,45.7344,0 -104.7146,44.5902,0 -103.7236,44.381,0</coordinates></LineString></Placemark></Document></kml>
