<?xml version="1.0" encoding="UTF-8"?>
<gpx version="1.1" creator="S&amp;S Travel Guide" xmlns="http://www.topografix.com/GPX/1/1">
  <metadata><name>Arches National Park</name><desc>Planning waypoints and overview connection; not road-snapped navigation.</desc></metadata>
  <wpt lat="38.5782" lon="-109.5527"><name>Hoodoo Moab</name><type>lodging</type></wpt>
  <wpt lat="38.6166" lon="-109.62"><name>Arches Visitor Center</name><type>visitor_center</type></wpt>
  <wpt lat="38.687" lon="-109.5369"><name>Windows Trailhead</name><type>trailhead</type></wpt>
  <wpt lat="38.7013" lon="-109.5657"><name>Balanced Rock</name><type>viewpoint</type></wpt>
  <wpt lat="38.735" lon="-109.5047"><name>Lower Delicate Arch Viewpoint</name><type>viewpoint</type></wpt>
  <wpt lat="38.5782" lon="-109.5527"><name>Hoodoo Moab</name><type>lodging</type></wpt>
  <trk><name>Arches National Park</name><trkseg>
      <trkpt lat="38.5782" lon="-109.5527"><name>Hoodoo Moab</name></trkpt>
      <trkpt lat="38.6166" lon="-109.62"><name>Arches Visitor Center</name></trkpt>
      <trkpt lat="38.687" lon="-109.5369"><name>Windows Trailhead</name></trkpt>
      <trkpt lat="38.7013" lon="-109.5657"><name>Balanced Rock</name></trkpt>
      <trkpt lat="38.735" lon="-109.5047"><name>Lower Delicate Arch Viewpoint</name></trkpt>
      <trkpt lat="38.5782" lon="-109.5527"><name>Hoodoo Moab</name></trkpt>
  </trkseg></trk>
</gpx>
