<?xml version="1.0" encoding="UTF-8"?>
<gpx version="1.1" creator="S&amp;S Travel Guide" xmlns="http://www.topografix.com/GPX/1/1">
  <metadata><name>Jackson Activities</name><desc>Planning waypoints and overview connection; not road-snapped navigation.</desc></metadata>
  <wpt lat="43.4799" lon="-110.7624"><name>Jackson, Wyoming</name><type>destination</type></wpt>
  <trk><name>Jackson Activities</name><trkseg>
      <trkpt lat="43.4799" lon="-110.7624"><name>Jackson, Wyoming</name></trkpt>
  </trkseg></trk>
</gpx>
