<?xml version="1.0" encoding="UTF-8"?>
<gpx version="1.1" creator="S&amp;S Travel Guide" xmlns="http://www.topografix.com/GPX/1/1">
  <metadata><name>Grand Teton to Jackson</name><desc>Planning waypoints and overview connection; not road-snapped navigation.</desc></metadata>
  <wpt lat="43.4779" lon="-111.9907"><name>Holiday Inn Express (Idaho Falls)</name><type>lodging</type></wpt>
  <wpt lat="43.865" lon="-110.547"><name>Oxbow Bend</name><type>viewpoint</type></wpt>
  <wpt lat="43.8435" lon="-110.6127"><name>Signal Mountain Summit</name><type>viewpoint</type></wpt>
  <wpt lat="43.752" lon="-110.722"><name>Jenny Lake Visitor Area</name><type>visitor_center</type></wpt>
  <wpt lat="43.6608" lon="-110.6647"><name>Mormon Row Historic District</name><type>viewpoint</type></wpt>
  <wpt lat="43.4814" lon="-110.7665"><name>Rusty Parrot Lodge (Jackson)</name><type>lodging</type></wpt>
  <trk><name>Grand Teton to Jackson</name><trkseg>
      <trkpt lat="43.4779" lon="-111.9907"><name>Holiday Inn Express (Idaho Falls)</name></trkpt>
      <trkpt lat="43.865" lon="-110.547"><name>Oxbow Bend</name></trkpt>
      <trkpt lat="43.8435" lon="-110.6127"><name>Signal Mountain Summit</name></trkpt>
      <trkpt lat="43.752" lon="-110.722"><name>Jenny Lake Visitor Area</name></trkpt>
      <trkpt lat="43.6608" lon="-110.6647"><name>Mormon Row Historic District</name></trkpt>
      <trkpt lat="43.4814" lon="-110.7665"><name>Rusty Parrot Lodge (Jackson)</name></trkpt>
  </trkseg></trk>
</gpx>
