<?xml version="1.0" encoding="UTF-8"?>
<gpx version="1.1" creator="S&amp;S Travel Guide" xmlns="http://www.topografix.com/GPX/1/1">
  <metadata><name>Zion to Idaho Falls</name><desc>Planning waypoints and overview connection; not road-snapped navigation.</desc></metadata>
  <wpt lat="37.1895" lon="-112.9969"><name>Red Cliffs Lodge Zion (Springdale)</name><type>lodging</type></wpt>
  <wpt lat="37.635" lon="-112.8453"><name>Cedar Breaks National Monument</name><type>viewpoint</type></wpt>
  <wpt lat="43.4779" lon="-111.9907"><name>Holiday Inn Express (Idaho Falls)</name><type>lodging</type></wpt>
  <trk><name>Zion to Idaho Falls</name><trkseg>
      <trkpt lat="37.1895" lon="-112.9969"><name>Red Cliffs Lodge Zion (Springdale)</name></trkpt>
      <trkpt lat="37.635" lon="-112.8453"><name>Cedar Breaks National Monument</name></trkpt>
      <trkpt lat="43.4779" lon="-111.9907"><name>Holiday Inn Express (Idaho Falls)</name></trkpt>
  </trkseg></trk>
</gpx>
