<?xml version="1.0" encoding="UTF-8"?>
<gpx version="1.1" creator="S&amp;S Travel Guide" xmlns="http://www.topografix.com/GPX/1/1">
  <metadata><name>Marion to Fort Collins</name><desc>Planning waypoints and overview connection; not road-snapped navigation.</desc></metadata>
  <wpt lat="42.0342" lon="-91.5977"><name>Marion, Iowa</name><type>destination</type></wpt>
  <wpt lat="40.5212" lon="-105.0395"><name>Home2 Suites (Fort Collins)</name><type>lodging</type></wpt>
  <trk><name>Marion to Fort Collins</name><trkseg>
      <trkpt lat="42.0342" lon="-91.5977"><name>Marion, Iowa</name></trkpt>
      <trkpt lat="40.5212" lon="-105.0395"><name>Home2 Suites (Fort Collins)</name></trkpt>
  </trkseg></trk>
</gpx>
