<?xml version="1.0" encoding="UTF-8"?>
<gpx version="1.1" creator="S&amp;S Travel Guide" xmlns="http://www.topografix.com/GPX/1/1">
  <metadata><name>Deadwood to Marion via Mount Rushmore</name><desc>Planning waypoints and overview connection; not road-snapped navigation.</desc></metadata>
  <wpt lat="44.381" lon="-103.7236"><name>Tru by Hilton (Deadwood)</name><type>lodging</type></wpt>
  <wpt lat="43.8791" lon="-103.4591"><name>Mount Rushmore National Memorial</name><type>viewpoint</type></wpt>
  <wpt lat="43.8366" lon="-103.6232"><name>Crazy Horse Memorial</name><type>viewpoint</type></wpt>
  <wpt lat="42.0342" lon="-91.5977"><name>Marion, Iowa</name><type>destination</type></wpt>
  <trk><name>Deadwood to Marion via Mount Rushmore</name><trkseg>
      <trkpt lat="44.381" lon="-103.7236"><name>Tru by Hilton (Deadwood)</name></trkpt>
      <trkpt lat="43.8791" lon="-103.4591"><name>Mount Rushmore National Memorial</name></trkpt>
      <trkpt lat="43.8366" lon="-103.6232"><name>Crazy Horse Memorial</name></trkpt>
      <trkpt lat="42.0342" lon="-91.5977"><name>Marion, Iowa</name></trkpt>
  </trkseg></trk>
</gpx>
