<?xml version="1.0" encoding="UTF-8"?>
<gpx version="1.1" creator="S&amp;S Travel Guide" xmlns="http://www.topografix.com/GPX/1/1">
  <metadata><name>Billings to Deadwood</name><desc>Planning waypoints and overview connection; not road-snapped navigation.</desc></metadata>
  <wpt lat="45.7344" lon="-108.6041"><name>Big Horn Resort (Billings)</name><type>lodging</type></wpt>
  <wpt lat="44.5902" lon="-104.7146"><name>Devils Tower Visitor Center</name><type>visitor_center</type></wpt>
  <wpt lat="44.381" lon="-103.7236"><name>Tru by Hilton (Deadwood)</name><type>lodging</type></wpt>
  <trk><name>Billings to Deadwood</name><trkseg>
      <trkpt lat="45.7344" lon="-108.6041"><name>Big Horn Resort (Billings)</name></trkpt>
      <trkpt lat="44.5902" lon="-104.7146"><name>Devils Tower Visitor Center</name></trkpt>
      <trkpt lat="44.381" lon="-103.7236"><name>Tru by Hilton (Deadwood)</name></trkpt>
  </trkseg></trk>
</gpx>
