<?xml version="1.0" encoding="UTF-8"?>
<kml xmlns="http://www.opengis.net/kml/2.2"><Document><name>Marion to Fort Collins</name><Placemark><name>Marion, Iowa</name><description>destination; confidence: high</description><Point><coordinates>-91.5977,42.0342,0</coordinates></Point></Placemark>
<Placemark><name>Fort Collins, Colorado</name><description>destination; confidence: high</description><Point><coordinates>-105.0844,40.5853,0</coordinates></Point></Placemark><Placemark><name>Marion to Fort Collins overview</name><description>Waypoint connection only; not road-snapped.</description><LineString><tessellate>1</tessellate><coordinates>-91.5977,42.0342,0 -105.0844,40.5853,0</coordinates></LineString></Placemark></Document></kml>