<?xml version="1.0" encoding="UTF-8"?>
<kml xmlns="http://www.opengis.net/kml/2.2"><Document><name>Deadwood to Marion</name><Placemark><name>Deadwood, South Dakota</name><description>destination; confidence: high</description><Point><coordinates>-103.7296,44.3767,0</coordinates></Point></Placemark>
<Placemark><name>Marion, Iowa</name><description>destination; confidence: high</description><Point><coordinates>-91.5977,42.0342,0</coordinates></Point></Placemark><Placemark><name>Deadwood to Marion overview</name><description>Waypoint connection only; not road-snapped.</description><LineString><tessellate>1</tessellate><coordinates>-103.7296,44.3767,0 -91.5977,42.0342,0</coordinates></LineString></Placemark></Document></kml>