<?xml version="1.0" encoding="UTF-8"?>
<kml xmlns="http://www.opengis.net/kml/2.2"><Document><name>S&amp;S Western Road Trip</name><Placemark><name>Marion, Iowa</name><description>destination; confidence: high</description><Point><coordinates>-91.5977,42.0342,0</coordinates></Point></Placemark>
<Placemark><name>Fort Collins, Colorado</name><description>destination; confidence: high</description><Point><coordinates>-105.0844,40.5853,0</coordinates></Point></Placemark>
<Placemark><name>Beaver Meadows Visitor Center</name><description>visitor_center; confidence: high</description><Point><coordinates>-105.568,40.3619,0</coordinates></Point></Placemark>
<Placemark><name>Bear Lake Trailhead</name><description>trailhead; confidence: high</description><Point><coordinates>-105.6457,40.3127,0</coordinates></Point></Placemark>
<Placemark><name>Alpine Visitor Center</name><description>visitor_center; confidence: high</description><Point><coordinates>-105.7559,40.4411,0</coordinates></Point></Placemark>
<Placemark><name>Holzwarth Historic Site / Kawuneeche Valley</name><description>wildlife_zone; confidence: approximate</description><Point><coordinates>-105.8495,40.4079,0</coordinates></Point></Placemark>
<Placemark><name>Grand Lake, Colorado</name><description>destination; confidence: high</description><Point><coordinates>-105.8231,40.2522,0</coordinates></Point></Placemark>
<Placemark><name>Moab, Utah</name><description>destination; confidence: high</description><Point><coordinates>-109.5498,38.5733,0</coordinates></Point></Placemark>
<Placemark><name>Arches Visitor Center</name><description>visitor_center; confidence: high</description><Point><coordinates>-109.62,38.6166,0</coordinates></Point></Placemark>
<Placemark><name>Windows Trailhead</name><description>trailhead; confidence: high</description><Point><coordinates>-109.5369,38.687,0</coordinates></Point></Placemark>
<Placemark><name>Balanced Rock</name><description>viewpoint; confidence: high</description><Point><coordinates>-109.5657,38.7013,0</coordinates></Point></Placemark>
<Placemark><name>Lower Delicate Arch Viewpoint</name><description>viewpoint; confidence: high</description><Point><coordinates>-109.5047,38.735,0</coordinates></Point></Placemark>
<Placemark><name>Goblin Valley State Park</name><description>viewpoint; confidence: high</description><Point><coordinates>-110.7072,38.5738,0</coordinates></Point></Placemark>
<Placemark><name>Capitol Reef Visitor Center</name><description>visitor_center; confidence: high</description><Point><coordinates>-111.2615,38.2916,0</coordinates></Point></Placemark>
<Placemark><name>Boulder, Utah</name><description>destination; confidence: high</description><Point><coordinates>-111.423,37.9221,0</coordinates></Point></Placemark>
<Placemark><name>Head of the Rocks Overlook</name><description>viewpoint; confidence: high</description><Point><coordinates>-111.4493,37.7451,0</coordinates></Point></Placemark>
<Placemark><name>Sunset Point, Bryce Canyon</name><description>viewpoint; confidence: high</description><Point><coordinates>-112.1666,37.6283,0</coordinates></Point></Placemark>
<Placemark><name>Bryce Canyon City</name><description>destination; confidence: high</description><Point><coordinates>-112.1587,37.6733,0</coordinates></Point></Placemark>
<Placemark><name>Inspiration Point, Bryce Canyon</name><description>viewpoint; confidence: high</description><Point><coordinates>-112.1709,37.6154,0</coordinates></Point></Placemark>
<Placemark><name>Canyon Overlook Trailhead</name><description>trailhead; confidence: high</description><Point><coordinates>-112.9404,37.2133,0</coordinates></Point></Placemark>
<Placemark><name>Zion Canyon Visitor Center</name><description>visitor_center; confidence: high</description><Point><coordinates>-112.9868,37.2,0</coordinates></Point></Placemark>
<Placemark><name>Springdale, Utah</name><description>destination; confidence: high</description><Point><coordinates>-112.9986,37.1889,0</coordinates></Point></Placemark>
<Placemark><name>Cedar Breaks National Monument</name><description>viewpoint; confidence: high</description><Point><coordinates>-112.8453,37.635,0</coordinates></Point></Placemark>
<Placemark><name>Idaho Falls, Idaho</name><description>destination; confidence: high</description><Point><coordinates>-112.0408,43.4927,0</coordinates></Point></Placemark>
<Placemark><name>Oxbow Bend</name><description>viewpoint; confidence: high</description><Point><coordinates>-110.547,43.865,0</coordinates></Point></Placemark>
<Placemark><name>Signal Mountain Summit</name><description>viewpoint; confidence: high</description><Point><coordinates>-110.6127,43.8435,0</coordinates></Point></Placemark>
<Placemark><name>Jenny Lake Visitor Area</name><description>visitor_center; confidence: high</description><Point><coordinates>-110.722,43.752,0</coordinates></Point></Placemark>
<Placemark><name>Mormon Row Historic District</name><description>viewpoint; confidence: high</description><Point><coordinates>-110.6647,43.6608,0</coordinates></Point></Placemark>
<Placemark><name>Jackson, Wyoming</name><description>destination; confidence: high</description><Point><coordinates>-110.7624,43.4799,0</coordinates></Point></Placemark>
<Placemark><name>Old Faithful</name><description>viewpoint; confidence: high</description><Point><coordinates>-110.8281,44.4605,0</coordinates></Point></Placemark>
<Placemark><name>Grand Prismatic Spring</name><description>viewpoint; confidence: high</description><Point><coordinates>-110.8382,44.525,0</coordinates></Point></Placemark>
<Placemark><name>Artist Point</name><description>viewpoint; confidence: high</description><Point><coordinates>-110.4796,44.7214,0</coordinates></Point></Placemark>
<Placemark><name>Lamar Valley</name><description>wildlife_zone; confidence: approximate</description><Point><coordinates>-110.2195,44.8955,0</coordinates></Point></Placemark>
<Placemark><name>Mammoth Hot Springs</name><description>visitor_center; confidence: high</description><Point><coordinates>-110.7018,44.9766,0</coordinates></Point></Placemark>
<Placemark><name>Beartooth Pass West Summit</name><description>viewpoint; confidence: high</description><Point><coordinates>-109.4687,44.9697,0</coordinates></Point></Placemark>
<Placemark><name>Rock Creek Vista Point</name><description>viewpoint; confidence: high</description><Point><coordinates>-109.4077,45.0503,0</coordinates></Point></Placemark>
<Placemark><name>Red Lodge, Montana</name><description>destination; confidence: high</description><Point><coordinates>-109.2468,45.1858,0</coordinates></Point></Placemark>
<Placemark><name>Billings, Montana</name><description>destination; confidence: high</description><Point><coordinates>-108.5007,45.7833,0</coordinates></Point></Placemark>
<Placemark><name>Devils Tower Visitor Center</name><description>visitor_center; confidence: high</description><Point><coordinates>-104.7146,44.5902,0</coordinates></Point></Placemark>
<Placemark><name>Deadwood, South Dakota</name><description>destination; confidence: high</description><Point><coordinates>-103.7296,44.3767,0</coordinates></Point></Placemark><Placemark><name>S&amp;S Western Road Trip overview</name><description>Waypoint connection only; not road-snapped.</description><LineString><tessellate>1</tessellate><coordinates>-91.5977,42.0342,0 -105.0844,40.5853,0 -105.568,40.3619,0 -105.6457,40.3127,0 -105.7559,40.4411,0 -105.8495,40.4079,0 -105.8231,40.2522,0 -109.5498,38.5733,0 -109.62,38.6166,0 -109.5369,38.687,0 -109.5657,38.7013,0 -109.5047,38.735,0 -110.7072,38.5738,0 -111.2615,38.2916,0 -111.423,37.9221,0 -111.4493,37.7451,0 -112.1666,37.6283,0 -112.1587,37.6733,0 -112.1709,37.6154,0 -112.9404,37.2133,0 -112.9868,37.2,0 -112.9986,37.1889,0 -112.8453,37.635,0 -112.0408,43.4927,0 -110.547,43.865,0 -110.6127,43.8435,0 -110.722,43.752,0 -110.6647,43.6608,0 -110.7624,43.4799,0 -110.8281,44.4605,0 -110.8382,44.525,0 -110.4796,44.7214,0 -110.2195,44.8955,0 -110.7018,44.9766,0 -109.4687,44.9697,0 -109.4077,45.0503,0 -109.2468,45.1858,0 -108.5007,45.7833,0 -104.7146,44.5902,0 -103.7296,44.3767,0</coordinates></LineString></Placemark></Document></kml>